STARLINK-11744 [DTC]    
1 64380U 25127L   25212.40312533  .00271348  00000+0  15002-2 0  9995
2 64380  42.9963 338.9344 0001215 254.0161 106.0575 15.78045768  8595
STARLINK-11692 [DTC]    
1 64381U 25127M   25212.27164334  .00278486  00000+0  15505-2 0  9993
2 64381  43.0008 339.6660 0002548 266.4311  93.6268 15.77868577  8782
STARLINK-11740 [DTC]    
1 64382U 25127N   25212.07686647  .00296299  00000+0  16353-2 0  9992
2 64382  42.9992 340.7822 0002132 284.5166  75.5468 15.78015029  8535
STARLINK-34299          
1 64383U 25127P   25212.42850060  .00022637  00000+0  82969-3 0  9994
2 64383  43.0007 349.7330 0000882 261.2889  98.7862 15.27577495  8586
STARLINK-34271          
1 64384U 25127Q   25212.41692991  .00023450  00000+0  85909-3 0  9992
2 64384  42.9982 349.6392 0001575 275.6677  84.3995 15.27575515  8633
STARLINK-34100          
1 64385U 25127R   25212.09387477 -.00070509  00000+0 -25733-2 0  9994
2 64385  43.0029 351.5181 0000990 242.6908 117.3843 15.27629880  8530
STARLINK-34269          
1 64386U 25127S   25212.11298647  .00033402  00000+0  12180-2 0  9999
2 64386  43.0014 350.7963 0000418 329.5267  30.5560 15.27576088  8591
STARLINK-34351          
1 64387U 25127T   25212.11169544  .00029066  00000+0  10612-2 0  9992
2 64387  42.9967 350.7816 0001311 261.5579  98.5124 15.27592489  8591
STARLINK-34198          
1 64388U 25127U   25212.44196718  .00025834  00000+0  92149-3 0  9997
2 64388  43.0020 348.9670 0001424 263.3298  96.7392 15.28407921  8644
STARLINK-34279          
1 64389U 25127V   25212.10799394  .00024445  00000+0  89533-3 0  9990
2 64389  43.0023 351.6276 0000247 357.5558   2.5293 15.27564022  8581
STARLINK-34292          
1 64390U 25127W   25212.41307886  .00025276  00000+0  92444-3 0  9995
2 64390  42.9984 349.6095 0000544 277.4471  82.6319 15.27595932  8635
STARLINK-34278          
1 64391U 25127X   25212.11555572  .00033444  00000+0  12193-2 0  9998
2 64391  42.9994 350.8147 0000358 339.3664  20.7173 15.27581251  8588
STARLINK-33802          
1 64392U 25127Y   25212.42571833  .00034642  00000+0  12299-2 0  9999
2 64392  43.0004 349.7108 0001169 277.5453  82.5266 15.28437115  8687
STARLINK-34419          
1 64412U 25129A   25212.58335648 -.01505486  00000+0 -51805-1 0  9990
2 64412  70.0221 272.8530 0003346 282.1727 114.5422 15.33249653  8146
STARLINK-34275          
1 64413U 25129B   25212.58335648 -.01766933  00000+0 -53975-1 0  9997
2 64413  70.0000 272.8399 0003272 278.2089 132.2174 15.36954315  8142
STARLINK-34225          
1 64414U 25129C   25212.58335648 -.01501714  00000+0 -50203-1 0  9993
2 64414  70.0366 272.9462 0003621 287.7765  27.3864 15.34147817  8132
