[{"OBJECT_NAME":"STARLINK-11744 [DTC]","OBJECT_ID":"2025-127L","EPOCH":"2025-07-31T09:40:30.028512","MEAN_MOTION":15.78045768,"ECCENTRICITY":0.0001215,"INCLINATION":42.9963,"RA_OF_ASC_NODE":338.9344,"ARG_OF_PERICENTER":254.0161,"MEAN_ANOMALY":106.0575,"EPHEMERIS_TYPE":0,"CLASSIFICATION_TYPE":"U","NORAD_CAT_ID":64380,"ELEMENT_SET_NO":999,"REV_AT_EPOCH":859,"BSTAR":0.0015002,"MEAN_MOTION_DOT":0.00271348,"MEAN_MOTION_DDOT":0},{"OBJECT_NAME":"STARLINK-11692 [DTC]","OBJECT_ID":"2025-127M","EPOCH":"2025-07-31T06:31:09.984576","MEAN_MOTION":15.77868577,"ECCENTRICITY":0.0002548,"INCLINATION":43.0008,"RA_OF_ASC_NODE":339.666,"ARG_OF_PERICENTER":266.4311,"MEAN_ANOMALY":93.6268,"EPHEMERIS_TYPE":0,"CLASSIFICATION_TYPE":"U","NORAD_CAT_ID":64381,"ELEMENT_SET_NO":999,"REV_AT_EPOCH":878,"BSTAR":0.0015505,"MEAN_MOTION_DOT":0.00278486,"MEAN_MOTION_DDOT":0},{"OBJECT_NAME":"STARLINK-11740 [DTC]","OBJECT_ID":"2025-127N","EPOCH":"2025-07-31T01:50:41.263008","MEAN_MOTION":15.78015029,"ECCENTRICITY":0.0002132,"INCLINATION":42.9992,"RA_OF_ASC_NODE":340.7822,"ARG_OF_PERICENTER":284.5166,"MEAN_ANOMALY":75.5468,"EPHEMERIS_TYPE":0,"CLASSIFICATION_TYPE":"U","NORAD_CAT_ID":64382,"ELEMENT_SET_NO":999,"REV_AT_EPOCH":853,"BSTAR":0.0016353,"MEAN_MOTION_DOT":0.00296299,"MEAN_MOTION_DDOT":0},{"OBJECT_NAME":"STARLINK-34299","OBJECT_ID":"2025-127P","EPOCH":"2025-07-31T10:17:02.451840","MEAN_MOTION":15.27577495,"ECCENTRICITY":8.82e-5,"INCLINATION":43.0007,"RA_OF_ASC_NODE":349.733,"ARG_OF_PERICENTER":261.2889,"MEAN_ANOMALY":98.7862,"EPHEMERIS_TYPE":0,"CLASSIFICATION_TYPE":"U","NORAD_CAT_ID":64383,"ELEMENT_SET_NO":999,"REV_AT_EPOCH":858,"BSTAR":0.00082969,"MEAN_MOTION_DOT":0.00022637,"MEAN_MOTION_DDOT":0},{"OBJECT_NAME":"STARLINK-34271","OBJECT_ID":"2025-127Q","EPOCH":"2025-07-31T10:00:22.744224","MEAN_MOTION":15.27575515,"ECCENTRICITY":0.0001575,"INCLINATION":42.9982,"RA_OF_ASC_NODE":349.6392,"ARG_OF_PERICENTER":275.6677,"MEAN_ANOMALY":84.3995,"EPHEMERIS_TYPE":0,"CLASSIFICATION_TYPE":"U","NORAD_CAT_ID":64384,"ELEMENT_SET_NO":999,"REV_AT_EPOCH":863,"BSTAR":0.00085909,"MEAN_MOTION_DOT":0.0002345,"MEAN_MOTION_DDOT":0},{"OBJECT_NAME":"STARLINK-34100","OBJECT_ID":"2025-127R","EPOCH":"2025-07-31T02:15:10.780128","MEAN_MOTION":15.2762988,"ECCENTRICITY":9.9e-5,"INCLINATION":43.0029,"RA_OF_ASC_NODE":351.5181,"ARG_OF_PERICENTER":242.6908,"MEAN_ANOMALY":117.3843,"EPHEMERIS_TYPE":0,"CLASSIFICATION_TYPE":"U","NORAD_CAT_ID":64385,"ELEMENT_SET_NO":999,"REV_AT_EPOCH":853,"BSTAR":-0.0025733,"MEAN_MOTION_DOT":-0.00070509,"MEAN_MOTION_DDOT":0},{"OBJECT_NAME":"STARLINK-34269","OBJECT_ID":"2025-127S","EPOCH":"2025-07-31T02:42:42.031008","MEAN_MOTION":15.27576088,"ECCENTRICITY":4.18e-5,"INCLINATION":43.0014,"RA_OF_ASC_NODE":350.7963,"ARG_OF_PERICENTER":329.5267,"MEAN_ANOMALY":30.556,"EPHEMERIS_TYPE":0,"CLASSIFICATION_TYPE":"U","NORAD_CAT_ID":64386,"ELEMENT_SET_NO":999,"REV_AT_EPOCH":859,"BSTAR":0.001218,"MEAN_MOTION_DOT":0.00033402,"MEAN_MOTION_DDOT":0},{"OBJECT_NAME":"STARLINK-34351","OBJECT_ID":"2025-127T","EPOCH":"2025-07-31T02:40:50.486016","MEAN_MOTION":15.27592489,"ECCENTRICITY":0.0001311,"INCLINATION":42.9967,"RA_OF_ASC_NODE":350.7816,"ARG_OF_PERICENTER":261.5579,"MEAN_ANOMALY":98.5124,"EPHEMERIS_TYPE":0,"CLASSIFICATION_TYPE":"U","NORAD_CAT_ID":64387,"ELEMENT_SET_NO":999,"REV_AT_EPOCH":859,"BSTAR":0.0010612,"MEAN_MOTION_DOT":0.00029066,"MEAN_MOTION_DDOT":0},{"OBJECT_NAME":"STARLINK-34198","OBJECT_ID":"2025-127U","EPOCH":"2025-07-31T10:36:25.964352","MEAN_MOTION":15.28407921,"ECCENTRICITY":0.0001424,"INCLINATION":43.002,"RA_OF_ASC_NODE":348.967,"ARG_OF_PERICENTER":263.3298,"MEAN_ANOMALY":96.7392,"EPHEMERIS_TYPE":0,"CLASSIFICATION_TYPE":"U","NORAD_CAT_ID":64388,"ELEMENT_SET_NO":999,"REV_AT_EPOCH":864,"BSTAR":0.00092149,"MEAN_MOTION_DOT":0.00025834,"MEAN_MOTION_DDOT":0},{"OBJECT_NAME":"STARLINK-34279","OBJECT_ID":"2025-127V","EPOCH":"2025-07-31T02:35:30.676416","MEAN_MOTION":15.27564022,"ECCENTRICITY":2.47e-5,"INCLINATION":43.0023,"RA_OF_ASC_NODE":351.6276,"ARG_OF_PERICENTER":357.5558,"MEAN_ANOMALY":2.5293,"EPHEMERIS_TYPE":0,"CLASSIFICATION_TYPE":"U","NORAD_CAT_ID":64389,"ELEMENT_SET_NO":999,"REV_AT_EPOCH":858,"BSTAR":0.00089533,"MEAN_MOTION_DOT":0.00024445,"MEAN_MOTION_DDOT":0},{"OBJECT_NAME":"STARLINK-34292","OBJECT_ID":"2025-127W","EPOCH":"2025-07-31T09:54:50.013504","MEAN_MOTION":15.27595932,"ECCENTRICITY":5.44e-5,"INCLINATION":42.9984,"RA_OF_ASC_NODE":349.6095,"ARG_OF_PERICENTER":277.4471,"MEAN_ANOMALY":82.6319,"EPHEMERIS_TYPE":0,"CLASSIFICATION_TYPE":"U","NORAD_CAT_ID":64390,"ELEMENT_SET_NO":999,"REV_AT_EPOCH":863,"BSTAR":0.00092444,"MEAN_MOTION_DOT":0.00025276,"MEAN_MOTION_DDOT":0},{"OBJECT_NAME":"STARLINK-34278","OBJECT_ID":"2025-127X","EPOCH":"2025-07-31T02:46:24.014208","MEAN_MOTION":15.27581251,"ECCENTRICITY":3.58e-5,"INCLINATION":42.9994,"RA_OF_ASC_NODE":350.8147,"ARG_OF_PERICENTER":339.3664,"MEAN_ANOMALY":20.7173,"EPHEMERIS_TYPE":0,"CLASSIFICATION_TYPE":"U","NORAD_CAT_ID":64391,"ELEMENT_SET_NO":999,"REV_AT_EPOCH":858,"BSTAR":0.0012193,"MEAN_MOTION_DOT":0.00033444,"MEAN_MOTION_DDOT":0},{"OBJECT_NAME":"STARLINK-33802","OBJECT_ID":"2025-127Y","EPOCH":"2025-07-31T10:13:02.063712","MEAN_MOTION":15.28437115,"ECCENTRICITY":0.0001169,"INCLINATION":43.0004,"RA_OF_ASC_NODE":349.7108,"ARG_OF_PERICENTER":277.5453,"MEAN_ANOMALY":82.5266,"EPHEMERIS_TYPE":0,"CLASSIFICATION_TYPE":"U","NORAD_CAT_ID":64392,"ELEMENT_SET_NO":999,"REV_AT_EPOCH":868,"BSTAR":0.0012299,"MEAN_MOTION_DOT":0.00034642,"MEAN_MOTION_DDOT":0},{"OBJECT_NAME":"STARLINK-34419","OBJECT_ID":"2025-129A","EPOCH":"2025-07-31T14:00:01.999872","MEAN_MOTION":15.33249653,"ECCENTRICITY":0.0003346,"INCLINATION":70.0221,"RA_OF_ASC_NODE":272.853,"ARG_OF_PERICENTER":282.1727,"MEAN_ANOMALY":114.5422,"EPHEMERIS_TYPE":0,"CLASSIFICATION_TYPE":"U","NORAD_CAT_ID":64412,"ELEMENT_SET_NO":999,"REV_AT_EPOCH":814,"BSTAR":-0.051805,"MEAN_MOTION_DOT":-0.01505486,"MEAN_MOTION_DDOT":0},{"OBJECT_NAME":"STARLINK-34275","OBJECT_ID":"2025-129B","EPOCH":"2025-07-31T14:00:01.999872","MEAN_MOTION":15.36954315,"ECCENTRICITY":0.0003272,"INCLINATION":70,"RA_OF_ASC_NODE":272.8399,"ARG_OF_PERICENTER":278.2089,"MEAN_ANOMALY":132.2174,"EPHEMERIS_TYPE":0,"CLASSIFICATION_TYPE":"U","NORAD_CAT_ID":64413,"ELEMENT_SET_NO":999,"REV_AT_EPOCH":814,"BSTAR":-0.053975,"MEAN_MOTION_DOT":-0.01766933,"MEAN_MOTION_DDOT":0},{"OBJECT_NAME":"STARLINK-34225","OBJECT_ID":"2025-129C","EPOCH":"2025-07-31T14:00:01.999872","MEAN_MOTION":15.34147817,"ECCENTRICITY":0.0003621,"INCLINATION":70.0366,"RA_OF_ASC_NODE":272.9462,"ARG_OF_PERICENTER":287.7765,"MEAN_ANOMALY":27.3864,"EPHEMERIS_TYPE":0,"CLASSIFICATION_TYPE":"U","NORAD_CAT_ID":64414,"ELEMENT_SET_NO":999,"REV_AT_EPOCH":813,"BSTAR":-0.050203,"MEAN_MOTION_DOT":-0.01501714,"MEAN_MOTION_DDOT":0}]
